[{"OBJECT_NAME":"STARLINK-31705","OBJECT_ID":"2024-062J","EPOCH":"2026-03-09T21:47:54.701664","MEAN_MOTION":15.3019285,"ECCENTRICITY":0.00018979,"INCLINATION":53.1595,"RA_OF_ASC_NODE":254.7329,"ARG_OF_PERICENTER":107.0611,"MEAN_ANOMALY":253.0598,"EPHEMERIS_TYPE":0,"CLASSIFICATION_TYPE":"U","NORAD_CAT_ID":59382,"ELEMENT_SET_NO":999,"REV_AT_EPOCH":10966,"BSTAR":-7.73978e-6,"MEAN_MOTION_DOT":-5.89e-6,"MEAN_MOTION_DDOT":0},{"OBJECT_NAME":"FLOCK 4G-13","OBJECT_ID":"2025-009N","EPOCH":"2026-03-09T16:57:12.071808","MEAN_MOTION":15.32770015,"ECCENTRICITY":0.0003801,"INCLINATION":97.4019,"RA_OF_ASC_NODE":151.0918,"ARG_OF_PERICENTER":292.7207,"MEAN_ANOMALY":67.3633,"EPHEMERIS_TYPE":0,"CLASSIFICATION_TYPE":"U","NORAD_CAT_ID":62621,"ELEMENT_SET_NO":999,"REV_AT_EPOCH":6370,"BSTAR":0.0016695386,"MEAN_MOTION_DOT":0.00053076,"MEAN_MOTION_DDOT":0}]
